GSAT0224 (GALILEO 28)   
1 49810U 21116B   25326.33490050 -.00000068  00000+0  00000+0 0  9998
2 49810  57.2249 347.2640 0003876 247.2257 115.5015  1.70476295 24681
GSAT0225 (GALILEO 29)   
1 59598U 24079A   25326.33802645  .00000033  00000+0  00000+0 0  9991
2 59598  54.9886 106.8660 0002311 167.3647 189.6708  1.70474850  9785
GSAT0227 (GALILEO 30)   
1 59600U 24079C   25327.11281145  .00000035  00000+0  00000+0 0  9990
2 59600  54.9846 106.8433 0003632 112.2840 247.7189  1.70474744  9853
GSAT0232 (GALILEO 32)   
1 61182U 24167A   25327.67809904  .00000030  00000+0  00000+0 0  9991
2 61182  55.2480 226.9547 0002381 222.3608 319.2069  1.70473413  7373
GSAT0226 (GALILEO 31)   
1 61183U 24167B   25328.07660160  .00000030  00000+0  00000+0 0  9996
2 61183  55.2468 226.9492 0000679 141.9614  36.8245  1.70473318  7350
