[
    {
        "OBJECT_NAME": "GSAT0224 (GALILEO 28)",
        "OBJECT_ID": "2021-116B",
        "EPOCH": "2025-11-22T08:02:15.403200",
        "MEAN_MOTION": 1.70476295,
        "ECCENTRICITY": 0.00038769,
        "INCLINATION": 57.2249,
        "RA_OF_ASC_NODE": 347.264,
        "ARG_OF_PERICENTER": 247.2257,
        "MEAN_ANOMALY": 115.5015,
        "EPHEMERIS_TYPE": 0,
        "CLASSIFICATION_TYPE": "U",
        "NORAD_CAT_ID": 49810,
        "ELEMENT_SET_NO": 999,
        "REV_AT_EPOCH": 2468,
        "BSTAR": 0,
        "MEAN_MOTION_DOT": -6.8e-07,
        "MEAN_MOTION_DDOT": 0
    },
    {
        "OBJECT_NAME": "GSAT0225 (GALILEO 29)",
        "OBJECT_ID": "2024-079A",
        "EPOCH": "2025-11-22T08:06:45.485280",
        "MEAN_MOTION": 1.7047485,
        "ECCENTRICITY": 0.00023119,
        "INCLINATION": 54.9886,
        "RA_OF_ASC_NODE": 106.866,
        "ARG_OF_PERICENTER": 167.3647,
        "MEAN_ANOMALY": 189.6708,
        "EPHEMERIS_TYPE": 0,
        "CLASSIFICATION_TYPE": "U",
        "NORAD_CAT_ID": 59598,
        "ELEMENT_SET_NO": 999,
        "REV_AT_EPOCH": 978,
        "BSTAR": 0,
        "MEAN_MOTION_DOT": 3.3e-07,
        "MEAN_MOTION_DDOT": 0
    },
    {
        "OBJECT_NAME": "GSAT0227 (GALILEO 30)",
        "OBJECT_ID": "2024-079C",
        "EPOCH": "2025-11-23T02:42:26.909280",
        "MEAN_MOTION": 1.70474744,
        "ECCENTRICITY": 0.00036324,
        "INCLINATION": 54.9846,
        "RA_OF_ASC_NODE": 106.8433,
        "ARG_OF_PERICENTER": 112.284,
        "MEAN_ANOMALY": 247.7189,
        "EPHEMERIS_TYPE": 0,
        "CLASSIFICATION_TYPE": "U",
        "NORAD_CAT_ID": 59600,
        "ELEMENT_SET_NO": 999,
        "REV_AT_EPOCH": 985,
        "BSTAR": 0,
        "MEAN_MOTION_DOT": 3.5e-07,
        "MEAN_MOTION_DDOT": 0
    },
    {
        "OBJECT_NAME": "GSAT0232 (GALILEO 32)",
        "OBJECT_ID": "2024-167A",
        "EPOCH": "2025-11-23T16:16:27.757056",
        "MEAN_MOTION": 1.70473413,
        "ECCENTRICITY": 0.0002381,
        "INCLINATION": 55.248,
        "RA_OF_ASC_NODE": 226.9547,
        "ARG_OF_PERICENTER": 222.3608,
        "MEAN_ANOMALY": 319.2069,
        "EPHEMERIS_TYPE": 0,
        "CLASSIFICATION_TYPE": "U",
        "NORAD_CAT_ID": 61182,
        "ELEMENT_SET_NO": 999,
        "REV_AT_EPOCH": 737,
        "BSTAR": 0,
        "MEAN_MOTION_DOT": 3e-07,
        "MEAN_MOTION_DDOT": 0
    },
    {
        "OBJECT_NAME": "GSAT0226 (GALILEO 31)",
        "OBJECT_ID": "2024-167B",
        "EPOCH": "2025-11-24T01:50:18.378240",
        "MEAN_MOTION": 1.70473318,
        "ECCENTRICITY": 6.79e-05,
        "INCLINATION": 55.2468,
        "RA_OF_ASC_NODE": 226.9492,
        "ARG_OF_PERICENTER": 141.9614,
        "MEAN_ANOMALY": 36.8245,
        "EPHEMERIS_TYPE": 0,
        "CLASSIFICATION_TYPE": "U",
        "NORAD_CAT_ID": 61183,
        "ELEMENT_SET_NO": 999,
        "REV_AT_EPOCH": 735,
        "BSTAR": 0,
        "MEAN_MOTION_DOT": 3e-07,
        "MEAN_MOTION_DDOT": 0
    }
]